0 FENGYUN 1C DEB
1 31369U 99025BRZ 13281.32066162  .00000195  00000-0  11945-3 0  3552
2 31369 098.8894 317.2460 0057834 113.9224 246.8061 14.15910770340135
0 FENGYUN 1C DEB
1 31369U 99025BRZ 13285.34859129  .00000201  00000-0  12255-3 0  3565
2 31369 098.8900 321.2642 0058048 102.6452 258.1267 14.15912975340702
0 FENGYUN 1C DEB
1 31369U 99025BRZ 13288.31652762  .00000215  00000-0  12948-3 0  3574
2 31369 098.8893 324.2232 0058407 094.5902 266.1983 14.15915166341125
0 FENGYUN 1C DEB
1 31369U 99025BRZ 13290.93113578  .00000218  00000-0  13094-3 0  3589
2 31369 098.8890 326.8288 0058682 087.3602 273.4319 14.15916703341495
0 FENGYUN 1C DEB
1 31369U 99025BRZ 13293.33374314  .00000229  00000-0  13629-3 0  3590
2 31369 098.8891 329.2257 0058284 080.5144 280.2773 14.15918548341830
